LANDSAT 9               
1 49260U 21088A   24282.54452063  .00004207  00000+0  94264-3 0  9997
2 49260  98.2203 350.7244 0001312  90.3304 269.8044 14.57141328161207
